{"fetched_at":"2026-03-29T02:12:04Z","count":15717,"tles":[{"name":"EXPRESS-AM5","line1":"1 39487U 13077A   26086.28894341 -.00000299  00000+0  00000+0 0  9999","line2":"2 39487   0.0193 216.3936 0002221 100.8581 111.4946  1.00268248 45530","category":"Other"}]}