{
  "norad_id": 39487,
  "name": "EXPRESS-AM5",
  "history": [
    {
      "epoch": "2026-03-27T06:56:04.710624",
      "apogee_km": 35796.95365531951,
      "perigee_km": 35778.21942435076,
      "latitude_deg": -0.016847885457615494,
      "longitude_deg": -139.56143264006823,
      "semi_major_axis_km": 42165.72353983514,
      "eccentricity": 0.00022215,
      "inclination_deg": 0.0193,
      "raan_deg": 216.3936,
      "arg_perigee_deg": 100.8581,
      "mean_anomaly_deg": 111.4946,
      "mean_motion_rev_day": 1.00268248
    }
  ]
}